{
"type": "FeatureCollection",
"name": "Heksagon_Potensi_Aktivitas_Yogyakarta_R500",
"crs": { "type": "name", "properties": { "name": "urn:ogc:def:crs:OGC:1.3:CRS84" } },
"features": [
{ "type": "Feature", "properties": { "hex_id": 0, "hex_r_m": 500.0, "luas_km2": 0.6495, "poi_total": 0, "poi_kuliner": 0, "poi_peribadatan": 0, "poi_kesehatan": 0, "poi_pendidikan": 0, "poi_perkantoran": 0, "poi_pariwisata": 0, "poi_perdagangan": 0, "poi_transportasi": 0, "penduduk": 707, "densitas_poi": 0.0, "densitas_penduduk": 1088.5, "skor_poi": 0.0, "skor_penduduk": 0.048, "skor_aktivitas": 0.024, "kelas_aktivitas": "Sangat Rendah" }, "geometry": { "type": "Polygon", "coordinates": [ [ [ 110.39188122521638, -7.838863515017666 ], [ 110.387956915731266, -7.83659655064455 ], [ 110.384026002468701, -7.838852102086078 ], [ 110.384019350385628, -7.843374650441004 ], [ 110.387943696382948, -7.845641654039925 ], [ 110.391874657951334, -7.84338607003687 ], [ 110.39188122521638, -7.838863515017666 ] ] ] } },
{ "type": "Feature", "properties": { "hex_id": 1, "hex_r_m": 500.0, "luas_km2": 0.6495, "poi_total": 0, "poi_kuliner": 0, "poi_peribadatan": 0, "poi_kesehatan": 0, "poi_pendidikan": 0, "poi_perkantoran": 0, "poi_pariwisata": 0, "poi_perdagangan": 0, "poi_transportasi": 0, "penduduk": 277, "densitas_poi": 0.0, "densitas_penduduk": 426.5, "skor_poi": 0.0, "skor_penduduk": 0.016, "skor_aktivitas": 0.008, "kelas_aktivitas": "Sangat Rendah" }, "geometry": { "type": "Polygon", "coordinates": [ [ [ 110.380108429808715, -7.83206252138652 ], [ 110.376184253370823, -7.829795456566039 ], [ 110.372253352052283, -7.832050898961178 ], [ 110.372246578791277, -7.836573438621032 ], [ 110.376170791590013, -7.838840542699337 ], [ 110.380101741289096, -7.836585067838721 ], [ 110.380108429808715, -7.83206252138652 ] ] ] } },
{ "type": "Feature", "properties": { "hex_id": 2, "hex_r_m": 500.0, "luas_km2": 0.6495, "poi_total": 2, "poi_kuliner": 0, "poi_peribadatan": 0, "poi_kesehatan": 0, "poi_pendidikan": 1, "poi_perkantoran": 0, "poi_pariwisata": 0, "poi_perdagangan": 1, "poi_transportasi": 0, "penduduk": 684, "densitas_poi": 3.08, "densitas_penduduk": 1053.1, "skor_poi": 0.015, "skor_penduduk": 0.047, "skor_aktivitas": 0.031, "kelas_aktivitas": "Sangat Rendah" }, "geometry": { "type": "Polygon", "coordinates": [ [ [ 110.387963519508844, -7.832073997485521 ], [ 110.384039294766069, -7.829807002453603 ], [ 110.380108429808715, -7.83206252138652 ], [ 110.380101741289096, -7.836585067838721 ], [ 110.384026002468701, -7.838852102086078 ], [ 110.387956915731266, -7.83659655064455 ], [ 110.387963519508844, -7.832073997485521 ] ] ] } },
{ "type": "Feature", "properties": { "hex_id": 3, "hex_r_m": 500.0, "luas_km2": 0.6495, "poi_total": 29, "poi_kuliner": 3, "poi_peribadatan": 1, "poi_kesehatan": 9, "poi_pendidikan": 6, "poi_perkantoran": 5, "poi_pariwisata": 3, "poi_perdagangan": 2, "poi_transportasi": 0, "penduduk": 4574, "densitas_poi": 44.65, "densitas_penduduk": 7042.1, "skor_poi": 0.223, "skor_penduduk": 0.338, "skor_aktivitas": 0.28, "kelas_aktivitas": "Rendah" }, "geometry": { "type": "Polygon", "coordinates": [ [ [ 110.395818621001354, -7.832085327257111 ], [ 110.391894348029055, -7.829818402057048 ], [ 110.38796351950883, -7.832073997485521 ], [ 110.387956915731266, -7.83659655064455 ], [ 110.39188122521638, -7.838863515017666 ], [ 110.395812101966456, -7.836607887037455 ], [ 110.395818621001354, -7.832085327257111 ] ] ] } },
{ "type": "Feature", "properties": { "hex_id": 4, "hex_r_m": 500.0, "luas_km2": 0.6495, "poi_total": 14, "poi_kuliner": 1, "poi_peribadatan": 6, "poi_kesehatan": 2, "poi_pendidikan": 3, "poi_perkantoran": 0, "poi_pariwisata": 2, "poi_perdagangan": 0, "poi_transportasi": 0, "penduduk": 1885, "densitas_poi": 21.55, "densitas_penduduk": 2902.1, "skor_poi": 0.108, "skor_penduduk": 0.137, "skor_aktivitas": 0.122, "kelas_aktivitas": "Sangat Rendah" }, "geometry": { "type": "Polygon", "coordinates": [ [ [ 110.403673734134912, -7.832096510700231 ], [ 110.399749413008436, -7.829829655375311 ], [ 110.395818621001354, -7.832085327257111 ], [ 110.395812101966456, -7.836607887037455 ], [ 110.399736459681719, -7.838874781493036 ], [ 110.403667299843306, -7.836619077016372 ], [ 110.403673734134912, -7.832096510700231 ] ] ] } },
{ "type": "Feature", "properties": { "hex_id": 5, "hex_r_m": 500.0, "luas_km2": 0.6495, "poi_total": 0, "poi_kuliner": 0, "poi_peribadatan": 0, "poi_kesehatan": 0, "poi_pendidikan": 0, "poi_perkantoran": 0, "poi_pariwisata": 0, "poi_perdagangan": 0, "poi_transportasi": 0, "penduduk": 150, "densitas_poi": 0.0, "densitas_penduduk": 230.9, "skor_poi": 0.0, "skor_penduduk": 0.007, "skor_aktivitas": 0.004, "kelas_aktivitas": "Sangat Rendah" }, "geometry": { "type": "Polygon", "coordinates": [ [ [ 110.352626180779794, -7.82523741744361 ], [ 110.348702234372425, -7.822970113276483 ], [ 110.344771273032123, -7.825225293521902 ], [ 110.344764209493519, -7.829747810196341 ], [ 110.348688191958473, -7.832015153738034 ], [ 110.352619201904673, -7.829759941209471 ], [ 110.352626180779794, -7.82523741744361 ] ] ] } },
{ "type": "Feature", "properties": { "hex_id": 6, "hex_r_m": 500.0, "luas_km2": 0.6495, "poi_total": 14, "poi_kuliner": 4, "poi_peribadatan": 5, "poi_kesehatan": 1, "poi_pendidikan": 0, "poi_perkantoran": 0, "poi_pariwisata": 0, "poi_perdagangan": 4, "poi_transportasi": 0, "penduduk": 2092, "densitas_poi": 21.55, "densitas_penduduk": 3220.8, "skor_poi": 0.108, "skor_penduduk": 0.152, "skor_aktivitas": 0.13, "kelas_aktivitas": "Rendah" }, "geometry": { "type": "Polygon", "coordinates": [ [ [ 110.360481100999806, -7.825249395171097 ], [ 110.356557106062183, -7.822982160576945 ], [ 110.352626180779794, -7.82523741744361 ], [ 110.352619201904673, -7.829759941209471 ], [ 110.356543232975852, -7.83202721513583 ], [ 110.360474206788808, -7.829771925942874 ], [ 110.360481100999806, -7.825249395171097 ] ] ] } },
{ "type": "Feature", "properties": { "hex_id": 7, "hex_r_m": 500.0, "luas_km2": 0.6495, "poi_total": 18, "poi_kuliner": 5, "poi_peribadatan": 2, "poi_kesehatan": 8, "poi_pendidikan": 2, "poi_perkantoran": 1, "poi_pariwisata": 0, "poi_perdagangan": 0, "poi_transportasi": 0, "penduduk": 2155, "densitas_poi": 27.71, "densitas_penduduk": 3317.8, "skor_poi": 0.138, "skor_penduduk": 0.157, "skor_aktivitas": 0.148, "kelas_aktivitas": "Rendah" }, "geometry": { "type": "Polygon", "coordinates": [ [ [ 110.368336033540842, -7.825261226703256 ], [ 110.364411990148312, -7.822994061725382 ], [ 110.360481100999806, -7.825249395171097 ], [ 110.360474206788808, -7.829771925942874 ], [ 110.36439828639088, -7.832039130210583 ], [ 110.368329223994635, -7.829783764395434 ], [ 110.368336033540842, -7.825261226703256 ] ] ] } },
{ "type": "Feature", "properties": { "hex_id": 8, "hex_r_m": 500.0, "luas_km2": 0.6495, "poi_total": 4, "poi_kuliner": 1, "poi_peribadatan": 1, "poi_kesehatan": 0, "poi_pendidikan": 1, "poi_perkantoran": 0, "poi_pariwisata": 0, "poi_perdagangan": 1, "poi_transportasi": 0, "penduduk": 1481, "densitas_poi": 6.16, "densitas_penduduk": 2280.1, "skor_poi": 0.031, "skor_penduduk": 0.106, "skor_aktivitas": 0.068, "kelas_aktivitas": "Sangat Rendah" }, "geometry": { "type": "Polygon", "coordinates": [ [ [ 110.376190978251614, -7.825272912038971 ], [ 110.372266886479494, -7.823005816720684 ], [ 110.368336033540842, -7.825261226703256 ], [ 110.368329223994635, -7.829783764395434 ], [ 110.372253352052283, -7.832050898961178 ], [ 110.376184253370823, -7.829795456566039 ], [ 110.376190978251614, -7.825272912038971 ] ] ] } },
{ "type": "Feature", "properties": { "hex_id": 9, "hex_r_m": 500.0, "luas_km2": 0.6495, "poi_total": 34, "poi_kuliner": 8, "poi_peribadatan": 8, "poi_kesehatan": 11, "poi_pendidikan": 5, "poi_perkantoran": 2, "poi_pariwisata": 0, "poi_perdagangan": 0, "poi_transportasi": 0, "penduduk": 4563, "densitas_poi": 52.35, "densitas_penduduk": 7025.2, "skor_poi": 0.262, "skor_penduduk": 0.337, "skor_aktivitas": 0.3, "kelas_aktivitas": "Rendah" }, "geometry": { "type": "Polygon", "coordinates": [ [ [ 110.38404593498079, -7.825284451177159 ], [ 110.380121794904397, -7.823017425561758 ], [ 110.376190978251614, -7.825272912038971 ], [ 110.376184253370823, -7.829795456566039 ], [ 110.380108429808715, -7.83206252138652 ], [ 110.384039294766069, -7.829807002453603 ], [ 110.38404593498079, -7.825284451177159 ] ] ] } },
{ "type": "Feature", "properties": { "hex_id": 10, "hex_r_m": 500.0, "luas_km2": 0.6495, "poi_total": 49, "poi_kuliner": 12, "poi_peribadatan": 10, "poi_kesehatan": 11, "poi_pendidikan": 15, "poi_perkantoran": 1, "poi_pariwisata": 0, "poi_perdagangan": 0, "poi_transportasi": 0, "penduduk": 5650, "densitas_poi": 75.44, "densitas_penduduk": 8698.7, "skor_poi": 0.377, "skor_penduduk": 0.419, "skor_aktivitas": 0.398, "kelas_aktivitas": "Sedang" }, "geometry": { "type": "Polygon", "coordinates": [ [ [ 110.391900903577067, -7.825295844116735 ], [ 110.387976715271776, -7.823028888247516 ], [ 110.38404593498079, -7.825284451177159 ], [ 110.384039294766069, -7.829807002453603 ], [ 110.387963519508844, -7.832073997485521 ], [ 110.391894348029055, -7.829818402057048 ], [ 110.391900903577067, -7.825295844116735 ] ] ] } },
{ "type": "Feature", "properties": { "hex_id": 11, "hex_r_m": 500.0, "luas_km2": 0.6495, "poi_total": 33, "poi_kuliner": 6, "poi_peribadatan": 7, "poi_kesehatan": 5, "poi_pendidikan": 10, "poi_perkantoran": 3, "poi_pariwisata": 1, "poi_perdagangan": 1, "poi_transportasi": 0, "penduduk": 4365, "densitas_poi": 50.81, "densitas_penduduk": 6720.4, "skor_poi": 0.254, "skor_penduduk": 0.323, "skor_aktivitas": 0.288, "kelas_aktivitas": "Rendah" }, "geometry": { "type": "Polygon", "coordinates": [ [ [ 110.399755883889142, -7.825307090856646 ], [ 110.395831647430285, -7.823040204776886 ], [ 110.391900903577067, -7.825295844116735 ], [ 110.391894348029055, -7.829818402057048 ], [ 110.395818621001354, -7.832085327257111 ], [ 110.399749413008436, -7.829829655375311 ], [ 110.399755883889142, -7.825307090856646 ] ] ] } },
{ "type": "Feature", "properties": { "hex_id": 12, "hex_r_m": 500.0, "luas_km2": 0.6495, "poi_total": 42, "poi_kuliner": 7, "poi_peribadatan": 15, "poi_kesehatan": 9, "poi_pendidikan": 9, "poi_perkantoran": 1, "poi_pariwisata": 0, "poi_perdagangan": 1, "poi_transportasi": 0, "penduduk": 5271, "densitas_poi": 64.66, "densitas_penduduk": 8115.2, "skor_poi": 0.323, "skor_penduduk": 0.391, "skor_aktivitas": 0.357, "kelas_aktivitas": "Sedang" }, "geometry": { "type": "Polygon", "coordinates": [ [ [ 110.407610875765698, -7.825318191395831 ], [ 110.403686591228606, -7.82305137514882 ], [ 110.399755883889142, -7.825307090856646 ], [ 110.399749413008436, -7.829829655375311 ], [ 110.403673734134912, -7.832096510700231 ], [ 110.407604489552909, -7.829840762407333 ], [ 110.407610875765698, -7.825318191395831 ] ] ] } },
{ "type": "Feature", "properties": { "hex_id": 13, "hex_r_m": 500.0, "luas_km2": 0.6495, "poi_total": 35, "poi_kuliner": 5, "poi_peribadatan": 14, "poi_kesehatan": 9, "poi_pendidikan": 5, "poi_perkantoran": 2, "poi_pariwisata": 0, "poi_perdagangan": 0, "poi_transportasi": 0, "penduduk": 6132, "densitas_poi": 53.89, "densitas_penduduk": 9440.8, "skor_poi": 0.269, "skor_penduduk": 0.455, "skor_aktivitas": 0.362, "kelas_aktivitas": "Sedang" }, "geometry": { "type": "Polygon", "coordinates": [ [ [ 110.356564036407079, -7.818459631837779 ], [ 110.352640126057949, -7.816192366992486 ], [ 110.348709249305472, -7.818447591585771 ], [ 110.348702234372425, -7.822970113276483 ], [ 110.352626180779794, -7.82523741744361 ], [ 110.356557106062183, -7.822982160576945 ], [ 110.356564036407079, -7.818459631837779 ] ] ] } },
{ "type": "Feature", "properties": { "hex_id": 14, "hex_r_m": 500.0, "luas_km2": 0.6495, "poi_total": 72, "poi_kuliner": 23, "poi_peribadatan": 12, "poi_kesehatan": 19, "poi_pendidikan": 13, "poi_perkantoran": 5, "poi_pariwisata": 0, "poi_perdagangan": 0, "poi_transportasi": 0, "penduduk": 8692, "densitas_poi": 110.85, "densitas_penduduk": 13382.2, "skor_poi": 0.554, "skor_penduduk": 0.647, "skor_aktivitas": 0.6, "kelas_aktivitas": "Tinggi" }, "geometry": { "type": "Polygon", "coordinates": [ [ [ 110.364418835904388, -7.818471526023273 ], [ 110.36049487710099, -7.816204330708584 ], [ 110.356564036407079, -7.818459631837779 ], [ 110.356557106062183, -7.822982160576945 ], [ 110.360481100999806, -7.825249395171097 ], [ 110.364411990148312, -7.822994061725382 ], [ 110.364418835904388, -7.818471526023273 ] ] ] } },
{ "type": "Feature", "properties": { "hex_id": 15, "hex_r_m": 500.0, "luas_km2": 0.6495, "poi_total": 80, "poi_kuliner": 33, "poi_peribadatan": 14, "poi_kesehatan": 19, "poi_pendidikan": 9, "poi_perkantoran": 2, "poi_pariwisata": 2, "poi_perdagangan": 1, "poi_transportasi": 0, "penduduk": 8768, "densitas_poi": 123.17, "densitas_penduduk": 13499.2, "skor_poi": 0.615, "skor_penduduk": 0.653, "skor_aktivitas": 0.634, "kelas_aktivitas": "Sangat Tinggi" }, "geometry": { "type": "Polygon", "coordinates": [ [ [ 110.372273647646111, -7.818483274141143 ], [ 110.368349640463762, -7.816216148400364 ], [ 110.364418835904388, -7.818471526023273 ], [ 110.364411990148312, -7.822994061725382 ], [ 110.368336033540842, -7.825261226703256 ], [ 110.372266886479494, -7.823005816720684 ], [ 110.372273647646111, -7.818483274141143 ] ] ] } },
{ "type": "Feature", "properties": { "hex_id": 16, "hex_r_m": 500.0, "luas_km2": 0.6495, "poi_total": 38, "poi_kuliner": 4, "poi_peribadatan": 12, "poi_kesehatan": 7, "poi_pendidikan": 7, "poi_perkantoran": 7, "poi_pariwisata": 1, "poi_perdagangan": 0, "poi_transportasi": 0, "penduduk": 6987, "densitas_poi": 58.5, "densitas_penduduk": 10757.2, "skor_poi": 0.292, "skor_penduduk": 0.519, "skor_aktivitas": 0.406, "kelas_aktivitas": "Sedang" }, "geometry": { "type": "Polygon", "coordinates": [ [ [ 110.38012847148093, -7.818494876190292 ], [ 110.376204415994977, -7.816227820066721 ], [ 110.372273647646111, -7.818483274141143 ], [ 110.372266886479494, -7.823005816720684 ], [ 110.376190978251614, -7.825272912038971 ], [ 110.380121794904397, -7.823017425561758 ], [ 110.38012847148093, -7.818494876190292 ] ] ] } },
{ "type": "Feature", "properties": { "hex_id": 17, "hex_r_m": 500.0, "luas_km2": 0.6495, "poi_total": 39, "poi_kuliner": 4, "poi_peribadatan": 10, "poi_kesehatan": 6, "poi_pendidikan": 16, "poi_perkantoran": 2, "poi_pariwisata": 1, "poi_perdagangan": 0, "poi_transportasi": 0, "penduduk": 5704, "densitas_poi": 60.04, "densitas_penduduk": 8781.9, "skor_poi": 0.3, "skor_penduduk": 0.423, "skor_aktivitas": 0.362, "kelas_aktivitas": "Sedang" }, "geometry": { "type": "Polygon", "coordinates": [ [ [ 110.387983307257585, -7.818506332169635 ], [ 110.384059203543316, -7.816239345706573 ], [ 110.38012847148093, -7.818494876190292 ], [ 110.380121794904397, -7.823017425561758 ], [ 110.38404593498079, -7.825284451177159 ], [ 110.387976715271776, -7.823028888247516 ], [ 110.387983307257585, -7.818506332169635 ] ] ] } },
{ "type": "Feature", "properties": { "hex_id": 18, "hex_r_m": 500.0, "luas_km2": 0.6495, "poi_total": 48, "poi_kuliner": 8, "poi_peribadatan": 19, "poi_kesehatan": 5, "poi_pendidikan": 8, "poi_perkantoran": 4, "poi_pariwisata": 4, "poi_perdagangan": 0, "poi_transportasi": 0, "penduduk": 6211, "densitas_poi": 73.9, "densitas_penduduk": 9562.5, "skor_poi": 0.369, "skor_penduduk": 0.461, "skor_aktivitas": 0.415, "kelas_aktivitas": "Sedang" }, "geometry": { "type": "Polygon", "coordinates": [ [ [ 110.39583815482473, -7.818517642078105 ], [ 110.39191400295752, -7.816250725318831 ], [ 110.387983307257585, -7.818506332169635 ], [ 110.387976715271776, -7.823028888247516 ], [ 110.391900903577067, -7.825295844116735 ], [ 110.395831647430285, -7.823040204776886 ], [ 110.39583815482473, -7.818517642078105 ] ] ] } },
{ "type": "Feature", "properties": { "hex_id": 19, "hex_r_m": 500.0, "luas_km2": 0.6495, "poi_total": 60, "poi_kuliner": 8, "poi_peribadatan": 16, "poi_kesehatan": 14, "poi_pendidikan": 13, "poi_perkantoran": 7, "poi_pariwisata": 1, "poi_perdagangan": 0, "poi_transportasi": 1, "penduduk": 7112, "densitas_poi": 92.38, "densitas_penduduk": 10949.6, "skor_poi": 0.462, "skor_penduduk": 0.529, "skor_aktivitas": 0.496, "kelas_aktivitas": "Tinggi" }, "geometry": { "type": "Polygon", "coordinates": [ [ [ 110.403693014031091, -7.818528805914644 ], [ 110.399768814086286, -7.816261958902444 ], [ 110.39583815482473, -7.818517642078105 ], [ 110.395831647430285, -7.823040204776886 ], [ 110.399755883889142, -7.825307090856646 ], [ 110.403686591228606, -7.82305137514882 ], [ 110.403693014031091, -7.818528805914644 ] ] ] } },
{ "type": "Feature", "properties": { "hex_id": 20, "hex_r_m": 500.0, "luas_km2": 0.6495, "poi_total": 1, "poi_kuliner": 0, "poi_peribadatan": 0, "poi_kesehatan": 0, "poi_pendidikan": 1, "poi_perkantoran": 0, "poi_pariwisata": 0, "poi_perdagangan": 0, "poi_transportasi": 0, "penduduk": 128, "densitas_poi": 1.54, "densitas_penduduk": 197.1, "skor_poi": 0.008, "skor_penduduk": 0.005, "skor_aktivitas": 0.007, "kelas_aktivitas": "Sangat Rendah" }, "geometry": { "type": "Polygon", "coordinates": [ [ [ 110.41154788472538, -7.81853982367821 ], [ 110.407623636778297, -7.816273046456359 ], [ 110.403693014031091, -7.818528805914644 ], [ 110.403686591228606, -7.82305137514882 ], [ 110.407610875765698, -7.825318191395831 ], [ 110.411541546515465, -7.823062399362263 ], [ 110.41154788472538, -7.81853982367821 ] ] ] } },
{ "type": "Feature", "properties": { "hex_id": 21, "hex_r_m": 500.0, "luas_km2": 0.6495, "poi_total": 28, "poi_kuliner": 4, "poi_peribadatan": 11, "poi_kesehatan": 4, "poi_pendidikan": 4, "poi_perkantoran": 5, "poi_pariwisata": 0, "poi_perdagangan": 0, "poi_transportasi": 0, "penduduk": 3863, "densitas_poi": 43.11, "densitas_penduduk": 5947.5, "skor_poi": 0.215, "skor_penduduk": 0.285, "skor_aktivitas": 0.25, "kelas_aktivitas": "Rendah" }, "geometry": { "type": "Polygon", "coordinates": [ [ [ 110.352647092461396, -7.81166984030833 ], [ 110.348723266624788, -7.809402545287199 ], [ 110.344792438401555, -7.811657737660014 ], [ 110.344785387485928, -7.81618025725319 ], [ 110.348709249305486, -7.818447591585771 ], [ 110.352640126057949, -7.816192366992486 ], [ 110.352647092461396, -7.81166984030833 ] ] ] } },
{ "type": "Feature", "properties": { "hex_id": 22, "hex_r_m": 500.0, "luas_km2": 0.6495, "poi_total": 82, "poi_kuliner": 11, "poi_peribadatan": 18, "poi_kesehatan": 23, "poi_pendidikan": 23, "poi_perkantoran": 4, "poi_pariwisata": 1, "poi_perdagangan": 1, "poi_transportasi": 1, "penduduk": 8845, "densitas_poi": 126.25, "densitas_penduduk": 13617.8, "skor_poi": 0.631, "skor_penduduk": 0.659, "skor_aktivitas": 0.645, "kelas_aktivitas": "Sangat Tinggi" }, "geometry": { "type": "Polygon", "coordinates": [ [ [ 110.360501758991603, -7.811681797018946 ], [ 110.356577884701366, -7.809414571442745 ], [ 110.352647092461396, -7.81166984030833 ], [ 110.352640126057949, -7.816192366992486 ], [ 110.356564036407079, -7.818459631837779 ], [ 110.36049487710099, -7.816204330708584 ], [ 110.360501758991603, -7.811681797018946 ] ] ] } },
{ "type": "Feature", "properties": { "hex_id": 23, "hex_r_m": 500.0, "luas_km2": 0.6495, "poi_total": 69, "poi_kuliner": 24, "poi_peribadatan": 9, "poi_kesehatan": 16, "poi_pendidikan": 14, "poi_perkantoran": 4, "poi_pariwisata": 1, "poi_perdagangan": 1, "poi_transportasi": 0, "penduduk": 8839, "densitas_poi": 106.23, "densitas_penduduk": 13608.5, "skor_poi": 0.531, "skor_penduduk": 0.658, "skor_aktivitas": 0.594, "kelas_aktivitas": "Tinggi" }, "geometry": { "type": "Polygon", "coordinates": [ [ [ 110.368356437840887, -7.811693607790751 ], [ 110.364432515172354, -7.809426451702784 ], [ 110.360501758991603, -7.811681797018946 ], [ 110.36049487710099, -7.816204330708584 ], [ 110.364418835904388, -7.818471526023273 ], [ 110.368349640463762, -7.816216148400364 ], [ 110.368356437840887, -7.811693607790751 ] ] ] } },
{ "type": "Feature", "properties": { "hex_id": 24, "hex_r_m": 500.0, "luas_km2": 0.6495, "poi_total": 65, "poi_kuliner": 24, "poi_peribadatan": 8, "poi_kesehatan": 14, "poi_pendidikan": 11, "poi_perkantoran": 4, "poi_pariwisata": 3, "poi_perdagangan": 1, "poi_transportasi": 0, "penduduk": 8705, "densitas_poi": 100.07, "densitas_penduduk": 13402.2, "skor_poi": 0.5, "skor_penduduk": 0.648, "skor_aktivitas": 0.574, "kelas_aktivitas": "Tinggi" }, "geometry": { "type": "Polygon", "coordinates": [ [ [ 110.376211128857975, -7.811705272622645 ], [ 110.372287157886447, -7.809438186066211 ], [ 110.368356437840887, -7.811693607790751 ], [ 110.368349640463762, -7.816216148400364 ], [ 110.372273647646111, -7.818483274141143 ], [ 110.376204415994977, -7.816227820066721 ], [ 110.376211128857975, -7.811705272622645 ] ] ] } },
{ "type": "Feature", "properties": { "hex_id": 25, "hex_r_m": 500.0, "luas_km2": 0.6495, "poi_total": 59, "poi_kuliner": 19, "poi_peribadatan": 11, "poi_kesehatan": 20, "poi_pendidikan": 5, "poi_perkantoran": 3, "poi_pariwisata": 0, "poi_perdagangan": 1, "poi_transportasi": 0, "penduduk": 6701, "densitas_poi": 90.84, "densitas_penduduk": 10316.9, "skor_poi": 0.454, "skor_penduduk": 0.498, "skor_aktivitas": 0.476, "kelas_aktivitas": "Tinggi" }, "geometry": { "type": "Polygon", "coordinates": [ [ [ 110.384065831891547, -7.811716791513532 ], [ 110.380141812692386, -7.809449774531934 ], [ 110.376211128857975, -7.811705272622645 ], [ 110.376204415994977, -7.816227820066721 ], [ 110.38012847148093, -7.818494876190292 ], [ 110.384059203543316, -7.816239345706573 ], [ 110.384065831891547, -7.811716791513532 ] ] ] } },
{ "type": "Feature", "properties": { "hex_id": 26, "hex_r_m": 500.0, "luas_km2": 0.6495, "poi_total": 56, "poi_kuliner": 13, "poi_peribadatan": 9, "poi_kesehatan": 19, "poi_pendidikan": 8, "poi_perkantoran": 5, "poi_pariwisata": 2, "poi_perdagangan": 0, "poi_transportasi": 0, "penduduk": 5704, "densitas_poi": 86.22, "densitas_penduduk": 8781.9, "skor_poi": 0.431, "skor_penduduk": 0.423, "skor_aktivitas": 0.427, "kelas_aktivitas": "Sedang" }, "geometry": { "type": "Polygon", "coordinates": [ [ [ 110.391920546790359, -7.811728164462338 ], [ 110.387996479438868, -7.809461217098865 ], [ 110.384065831891547, -7.811716791513532 ], [ 110.384059203543316, -7.816239345706573 ], [ 110.387983307257585, -7.818506332169635 ], [ 110.39191400295752, -7.816250725318831 ], [ 110.391920546790359, -7.811728164462338 ] ] ] } },
{ "type": "Feature", "properties": { "hex_id": 27, "hex_r_m": 500.0, "luas_km2": 0.6495, "poi_total": 52, "poi_kuliner": 9, "poi_peribadatan": 19, "poi_kesehatan": 10, "poi_pendidikan": 7, "poi_perkantoran": 5, "poi_pariwisata": 2, "poi_perdagangan": 0, "poi_transportasi": 0, "penduduk": 7469, "densitas_poi": 80.06, "densitas_penduduk": 11499.3, "skor_poi": 0.4, "skor_penduduk": 0.555, "skor_aktivitas": 0.478, "kelas_aktivitas": "Tinggi" }, "geometry": { "type": "Polygon", "coordinates": [ [ [ 110.399775273403122, -7.811739391468008 ], [ 110.395851157974619, -7.809472513765933 ], [ 110.391920546790359, -7.811728164462338 ], [ 110.39191400295752, -7.816250725318831 ], [ 110.39583815482473, -7.818517642078105 ], [ 110.399768814086286, -7.816261958902444 ], [ 110.399775273403122, -7.811739391468008 ] ] ] } },
{ "type": "Feature", "properties": { "hex_id": 28, "hex_r_m": 500.0, "luas_km2": 0.6495, "poi_total": 19, "poi_kuliner": 3, "poi_peribadatan": 7, "poi_kesehatan": 3, "poi_pendidikan": 2, "poi_perkantoran": 4, "poi_pariwisata": 0, "poi_perdagangan": 0, "poi_transportasi": 0, "penduduk": 1906, "densitas_poi": 29.25, "densitas_penduduk": 2934.5, "skor_poi": 0.146, "skor_penduduk": 0.138, "skor_aktivitas": 0.142, "kelas_aktivitas": "Rendah" }, "geometry": { "type": "Polygon", "coordinates": [ [ [ 110.407630011578519, -7.811750472529486 ], [ 110.403705848148363, -7.809483664532094 ], [ 110.399775273403122, -7.811739391468008 ], [ 110.399768814086286, -7.816261958902444 ], [ 110.403693014031091, -7.818528805914644 ], [ 110.407623636778297, -7.816273046456359 ], [ 110.407630011578519, -7.811750472529486 ] ] ] } },
{ "type": "Feature", "properties": { "hex_id": 29, "hex_r_m": 500.0, "luas_km2": 0.6495, "poi_total": 23, "poi_kuliner": 4, "poi_peribadatan": 3, "poi_kesehatan": 8, "poi_pendidikan": 4, "poi_perkantoran": 3, "poi_pariwisata": 1, "poi_perdagangan": 0, "poi_transportasi": 0, "penduduk": 4124, "densitas_poi": 35.41, "densitas_penduduk": 6349.3, "skor_poi": 0.177, "skor_penduduk": 0.305, "skor_aktivitas": 0.241, "kelas_aktivitas": "Rendah" }, "geometry": { "type": "Polygon", "coordinates": [ [ [ 110.348730269011483, -7.804880020680439 ], [ 110.344806527611411, -7.802612695558775 ], [ 110.340875747916783, -7.804867855764031 ], [ 110.340868661093864, -7.809390373237274 ], [ 110.344792438401555, -7.811657737660014 ], [ 110.348723266624788, -7.809402545287199 ], [ 110.348730269011483, -7.804880020680439 ] ] ] } },
{ "type": "Feature", "properties": { "hex_id": 30, "hex_r_m": 500.0, "luas_km2": 0.6495, "poi_total": 76, "poi_kuliner": 14, "poi_peribadatan": 17, "poi_kesehatan": 15, "poi_pendidikan": 19, "poi_perkantoran": 9, "poi_pariwisata": 1, "poi_perdagangan": 1, "poi_transportasi": 0, "penduduk": 10813, "densitas_poi": 117.01, "densitas_penduduk": 16647.7, "skor_poi": 0.585, "skor_penduduk": 0.806, "skor_aktivitas": 0.696, "kelas_aktivitas": "Sangat Tinggi" }, "geometry": { "type": "Polygon", "coordinates": [ [ [ 110.356584802651213, -7.80489203978797 ], [ 110.352661012798166, -7.802624784025558 ], [ 110.348730269011483, -7.804880020680439 ], [ 110.348723266624788, -7.809402545287199 ], [ 110.352647092461396, -7.81166984030833 ], [ 110.356577884701366, -7.809414571442745 ], [ 110.356584802651213, -7.80489203978797 ] ] ] } },
{ "type": "Feature", "properties": { "hex_id": 31, "hex_r_m": 500.0, "luas_km2": 0.6495, "poi_total": 72, "poi_kuliner": 16, "poi_peribadatan": 18, "poi_kesehatan": 12, "poi_pendidikan": 14, "poi_perkantoran": 6, "poi_pariwisata": 5, "poi_perdagangan": 1, "poi_transportasi": 0, "penduduk": 9120, "densitas_poi": 110.85, "densitas_penduduk": 14041.2, "skor_poi": 0.554, "skor_penduduk": 0.679, "skor_aktivitas": 0.616, "kelas_aktivitas": "Tinggi" }, "geometry": { "type": "Polygon", "coordinates": [ [ [ 110.36443934868467, -7.804903913085499 ], [ 110.360515510453965, -7.802636726725648 ], [ 110.356584802651199, -7.80489203978797 ], [ 110.356577884701366, -7.809414571442745 ], [ 110.360501758991603, -7.811681797018946 ], [ 110.364432515172354, -7.809426451702784 ], [ 110.36443934868467, -7.804903913085499 ] ] ] } },
{ "type": "Feature", "properties": { "hex_id": 32, "hex_r_m": 500.0, "luas_km2": 0.6495, "poi_total": 88, "poi_kuliner": 17, "poi_peribadatan": 22, "poi_kesehatan": 21, "poi_pendidikan": 7, "poi_perkantoran": 13, "poi_pariwisata": 5, "poi_perdagangan": 3, "poi_transportasi": 0, "penduduk": 8814, "densitas_poi": 135.48, "densitas_penduduk": 13570.0, "skor_poi": 0.677, "skor_penduduk": 0.656, "skor_aktivitas": 0.667, "kelas_aktivitas": "Sangat Tinggi" }, "geometry": { "type": "Polygon", "coordinates": [ [ [ 110.372293906960593, -7.804915640571919 ], [ 110.368370020427562, -7.802648523657936 ], [ 110.36443934868467, -7.804903913085499 ], [ 110.364432515172354, -7.809426451702784 ], [ 110.368356437840887, -7.811693607790751 ], [ 110.372287157886447, -7.809438186066211 ], [ 110.372293906960593, -7.804915640571919 ] ] ] } },
{ "type": "Feature", "properties": { "hex_id": 33, "hex_r_m": 500.0, "luas_km2": 0.6495, "poi_total": 63, "poi_kuliner": 14, "poi_peribadatan": 20, "poi_kesehatan": 11, "poi_pendidikan": 12, "poi_perkantoran": 3, "poi_pariwisata": 3, "poi_perdagangan": 0, "poi_transportasi": 0, "penduduk": 8667, "densitas_poi": 96.99, "densitas_penduduk": 13343.7, "skor_poi": 0.485, "skor_penduduk": 0.645, "skor_aktivitas": 0.565, "kelas_aktivitas": "Tinggi" }, "geometry": { "type": "Polygon", "coordinates": [ [ [ 110.380148477327708, -7.804927222246138 ], [ 110.37622454256767, -7.802660174821313 ], [ 110.372293906960593, -7.804915640571919 ], [ 110.372287157886447, -7.809438186066211 ], [ 110.376211128857975, -7.811705272622645 ], [ 110.380141812692386, -7.809449774531934 ], [ 110.380148477327708, -7.804927222246138 ] ] ] } },
{ "type": "Feature", "properties": { "hex_id": 34, "hex_r_m": 500.0, "luas_km2": 0.6495, "poi_total": 35, "poi_kuliner": 9, "poi_peribadatan": 10, "poi_kesehatan": 5, "poi_pendidikan": 4, "poi_perkantoran": 6, "poi_pariwisata": 1, "poi_perdagangan": 0, "poi_transportasi": 0, "penduduk": 5741, "densitas_poi": 53.89, "densitas_penduduk": 8838.8, "skor_poi": 0.269, "skor_penduduk": 0.426, "skor_aktivitas": 0.348, "kelas_aktivitas": "Rendah" }, "geometry": { "type": "Polygon", "coordinates": [ [ [ 110.388003059634769, -7.804938658107067 ], [ 110.384079076723012, -7.802671680214697 ], [ 110.380148477327708, -7.804927222246138 ], [ 110.380141812692386, -7.809449774531934 ], [ 110.384065831891547, -7.811716791513532 ], [ 110.387996479438868, -7.809461217098865 ], [ 110.388003059634769, -7.804938658107067 ] ] ] } },
{ "type": "Feature", "properties": { "hex_id": 35, "hex_r_m": 500.0, "luas_km2": 0.6495, "poi_total": 65, "poi_kuliner": 19, "poi_peribadatan": 16, "poi_kesehatan": 6, "poi_pendidikan": 14, "poi_perkantoran": 4, "poi_pariwisata": 6, "poi_perdagangan": 0, "poi_transportasi": 0, "penduduk": 5754, "densitas_poi": 100.07, "densitas_penduduk": 8858.9, "skor_poi": 0.5, "skor_penduduk": 0.427, "skor_aktivitas": 0.464, "kelas_aktivitas": "Sedang" }, "geometry": { "type": "Polygon", "coordinates": [ [ [ 110.395857653730459, -7.804949948153643 ], [ 110.391933622742329, -7.802683039837012 ], [ 110.388003059634769, -7.804938658107067 ], [ 110.387996479438868, -7.809461217098865 ], [ 110.391920546790359, -7.811728164462338 ], [ 110.395851157974619, -7.809472513765933 ], [ 110.395857653730459, -7.804949948153643 ] ] ] } },
{ "type": "Feature", "properties": { "hex_id": 36, "hex_r_m": 500.0, "luas_km2": 0.6495, "poi_total": 38, "poi_kuliner": 9, "poi_peribadatan": 8, "poi_kesehatan": 6, "poi_pendidikan": 7, "poi_perkantoran": 5, "poi_pariwisata": 2, "poi_perdagangan": 1, "poi_transportasi": 0, "penduduk": 6450, "densitas_poi": 58.5, "densitas_penduduk": 9930.4, "skor_poi": 0.292, "skor_penduduk": 0.479, "skor_aktivitas": 0.385, "kelas_aktivitas": "Sedang" }, "geometry": { "type": "Polygon", "coordinates": [ [ [ 110.403712259463546, -7.804961092384814 ], [ 110.39978818047436, -7.802694253687197 ], [ 110.395857653730459, -7.804949948153643 ], [ 110.395851157974619, -7.809472513765933 ], [ 110.399775273403122, -7.811739391468008 ], [ 110.403705848148363, -7.809483664532094 ], [ 110.403712259463546, -7.804961092384814 ] ] ] } },
{ "type": "Feature", "properties": { "hex_id": 37, "hex_r_m": 500.0, "luas_km2": 0.6495, "poi_total": 61, "poi_kuliner": 7, "poi_peribadatan": 15, "poi_kesehatan": 21, "poi_pendidikan": 12, "poi_perkantoran": 3, "poi_pariwisata": 3, "poi_perdagangan": 0, "poi_transportasi": 0, "penduduk": 7118, "densitas_poi": 93.92, "densitas_penduduk": 10958.9, "skor_poi": 0.469, "skor_penduduk": 0.529, "skor_aktivitas": 0.499, "kelas_aktivitas": "Tinggi" }, "geometry": { "type": "Polygon", "coordinates": [ [ [ 110.352667966731914, -7.798102254428042 ], [ 110.348744261240114, -7.795834968554718 ], [ 110.344813565906065, -7.798090173051805 ], [ 110.344806527611411, -7.802612695558775 ], [ 110.348730269011483, -7.804880020680439 ], [ 110.352661012798166, -7.802624784025558 ], [ 110.352667966731914, -7.798102254428042 ] ] ] } },
{ "type": "Feature", "properties": { "hex_id": 38, "hex_r_m": 500.0, "luas_km2": 0.6495, "poi_total": 83, "poi_kuliner": 13, "poi_peribadatan": 21, "poi_kesehatan": 15, "poi_pendidikan": 25, "poi_perkantoran": 5, "poi_pariwisata": 2, "poi_perdagangan": 2, "poi_transportasi": 0, "penduduk": 13399, "densitas_poi": 127.79, "densitas_penduduk": 20629.1, "skor_poi": 0.638, "skor_penduduk": 1.0, "skor_aktivitas": 0.819, "kelas_aktivitas": "Sangat Tinggi" }, "geometry": { "type": "Polygon", "coordinates": [ [ [ 110.360522380026168, -7.798114190123088 ], [ 110.356598626157364, -7.795846973566657 ], [ 110.352667966731914, -7.798102254428042 ], [ 110.352661012798166, -7.802624784025558 ], [ 110.356584802651213, -7.80489203978797 ], [ 110.360515510453965, -7.802636726725648 ], [ 110.360522380026168, -7.798114190123088 ] ] ] } },
{ "type": "Feature", "properties": { "hex_id": 39, "hex_r_m": 500.0, "luas_km2": 0.6495, "poi_total": 116, "poi_kuliner": 36, "poi_peribadatan": 24, "poi_kesehatan": 16, "poi_pendidikan": 11, "poi_perkantoran": 6, "poi_pariwisata": 14, "poi_perdagangan": 9, "poi_transportasi": 0, "penduduk": 9492, "densitas_poi": 178.59, "densitas_penduduk": 14613.9, "skor_poi": 0.892, "skor_penduduk": 0.707, "skor_aktivitas": 0.8, "kelas_aktivitas": "Sangat Tinggi" }, "geometry": { "type": "Polygon", "coordinates": [ [ [ 110.368376805637538, -7.798125980135827 ], [ 110.364453003467034, -7.79585883293959 ], [ 110.360522380026168, -7.798114190123088 ], [ 110.360515510453965, -7.802636726725648 ], [ 110.36443934868467, -7.804903913085499 ], [ 110.368370020427562, -7.802648523657936 ], [ 110.368376805637538, -7.798125980135827 ] ] ] } },
{ "type": "Feature", "properties": { "hex_id": 40, "hex_r_m": 500.0, "luas_km2": 0.6495, "poi_total": 128, "poi_kuliner": 33, "poi_peribadatan": 23, "poi_kesehatan": 34, "poi_pendidikan": 20, "poi_perkantoran": 12, "poi_pariwisata": 5, "poi_perdagangan": 1, "poi_transportasi": 0, "penduduk": 9892, "densitas_poi": 197.07, "densitas_penduduk": 15229.7, "skor_poi": 0.985, "skor_penduduk": 0.737, "skor_aktivitas": 0.861, "kelas_aktivitas": "Sangat Tinggi" }, "geometry": { "type": "Polygon", "coordinates": [ [ [ 110.376231243414779, -7.79813762446516 ], [ 110.372307393017905, -7.795870546672419 ], [ 110.368376805637538, -7.798125980135827 ], [ 110.368370020427562, -7.802648523657936 ], [ 110.372293906960593, -7.804915640571919 ], [ 110.37622454256767, -7.802660174821313 ], [ 110.376231243414779, -7.79813762446516 ] ] ] } },
{ "type": "Feature", "properties": { "hex_id": 41, "hex_r_m": 500.0, "luas_km2": 0.6495, "poi_total": 67, "poi_kuliner": 10, "poi_peribadatan": 12, "poi_kesehatan": 8, "poi_pendidikan": 23, "poi_perkantoran": 13, "poi_pariwisata": 0, "poi_perdagangan": 1, "poi_transportasi": 0, "penduduk": 8010, "densitas_poi": 103.15, "densitas_penduduk": 12332.2, "skor_poi": 0.515, "skor_penduduk": 0.596, "skor_aktivitas": 0.556, "kelas_aktivitas": "Tinggi" }, "geometry": { "type": "Polygon", "coordinates": [ [ [ 110.384085693206643, -7.798149123110002 ], [ 110.38016179465869, -7.795882114764047 ], [ 110.376231243414779, -7.79813762446516 ], [ 110.37622454256767, -7.802660174821313 ], [ 110.380148477327708, -7.804927222246138 ], [ 110.384079076723012, -7.802671680214697 ], [ 110.384085693206643, -7.798149123110002 ] ] ] } },
{ "type": "Feature", "properties": { "hex_id": 42, "hex_r_m": 500.0, "luas_km2": 0.6495, "poi_total": 91, "poi_kuliner": 17, "poi_peribadatan": 17, "poi_kesehatan": 20, "poi_pendidikan": 6, "poi_perkantoran": 30, "poi_pariwisata": 1, "poi_perdagangan": 0, "poi_transportasi": 0, "penduduk": 5704, "densitas_poi": 140.1, "densitas_penduduk": 8781.9, "skor_poi": 0.7, "skor_penduduk": 0.423, "skor_aktivitas": 0.562, "kelas_aktivitas": "Tinggi" }, "geometry": { "type": "Polygon", "coordinates": [ [ [ 110.391940154861857, -7.798160476069275 ], [ 110.388016208238142, -7.795893537213392 ], [ 110.384085693206643, -7.798149123110002 ], [ 110.384079076723012, -7.802671680214697 ], [ 110.388003059634769, -7.804938658107067 ], [ 110.391933622742329, -7.802683039837012 ], [ 110.391940154861857, -7.798160476069275 ] ] ] } },
{ "type": "Feature", "properties": { "hex_id": 43, "hex_r_m": 500.0, "luas_km2": 0.6495, "poi_total": 37, "poi_kuliner": 6, "poi_peribadatan": 8, "poi_kesehatan": 8, "poi_pendidikan": 7, "poi_perkantoran": 8, "poi_pariwisata": 0, "poi_perdagangan": 0, "poi_transportasi": 0, "penduduk": 4863, "densitas_poi": 56.97, "densitas_penduduk": 7487.1, "skor_poi": 0.285, "skor_penduduk": 0.36, "skor_aktivitas": 0.322, "kelas_aktivitas": "Rendah" }, "geometry": { "type": "Polygon", "coordinates": [ [ [ 110.399794628229159, -7.798171683341921 ], [ 110.395870633605, -7.795904814019391 ], [ 110.391940154861857, -7.798160476069275 ], [ 110.391933622742329, -7.802683039837012 ], [ 110.395857653730459, -7.804949948153643 ], [ 110.39978818047436, -7.802694253687197 ], [ 110.399794628229159, -7.798171683341921 ] ] ] } },
{ "type": "Feature", "properties": { "hex_id": 44, "hex_r_m": 500.0, "luas_km2": 0.6495, "poi_total": 5, "poi_kuliner": 0, "poi_peribadatan": 0, "poi_kesehatan": 2, "poi_pendidikan": 1, "poi_perkantoran": 2, "poi_pariwisata": 0, "poi_perdagangan": 0, "poi_transportasi": 0, "penduduk": 372, "densitas_poi": 7.7, "densitas_penduduk": 572.7, "skor_poi": 0.038, "skor_penduduk": 0.023, "skor_aktivitas": 0.03, "kelas_aktivitas": "Sangat Rendah" }, "geometry": { "type": "Polygon", "coordinates": [ [ [ 110.407649113157277, -7.798182744926894 ], [ 110.403725070608004, -7.795915945180986 ], [ 110.399794628229159, -7.798171683341921 ], [ 110.39978818047436, -7.802694253687197 ], [ 110.403712259463546, -7.804961092384814 ], [ 110.407642749767803, -7.802705321764204 ], [ 110.407649113157277, -7.798182744926894 ] ] ] } },
{ "type": "Feature", "properties": { "hex_id": 45, "hex_r_m": 500.0, "luas_km2": 0.6495, "poi_total": 0, "poi_kuliner": 0, "poi_peribadatan": 0, "poi_kesehatan": 0, "poi_pendidikan": 0, "poi_perkantoran": 0, "poi_pariwisata": 0, "poi_perdagangan": 0, "poi_transportasi": 0, "penduduk": 109, "densitas_poi": 0.0, "densitas_penduduk": 167.8, "skor_poi": 0.0, "skor_penduduk": 0.003, "skor_aktivitas": 0.002, "kelas_aktivitas": "Sangat Rendah" }, "geometry": { "type": "Polygon", "coordinates": [ [ [ 110.348751251082462, -7.791312441036854 ], [ 110.344827629875951, -7.789045125127916 ], [ 110.340896982993868, -7.791300297520113 ], [ 110.340889908866558, -7.795822817904901 ], [ 110.344813565906065, -7.798090173051805 ], [ 110.348744261240114, -7.795834968554718 ], [ 110.348751251082462, -7.791312441036854 ] ] ] } },
{ "type": "Feature", "properties": { "hex_id": 46, "hex_r_m": 500.0, "luas_km2": 0.6495, "poi_total": 87, "poi_kuliner": 20, "poi_peribadatan": 21, "poi_kesehatan": 18, "poi_pendidikan": 19, "poi_perkantoran": 5, "poi_pariwisata": 2, "poi_perdagangan": 2, "poi_transportasi": 0, "penduduk": 9486, "densitas_poi": 133.95, "densitas_penduduk": 14604.7, "skor_poi": 0.669, "skor_penduduk": 0.707, "skor_aktivitas": 0.688, "kelas_aktivitas": "Sangat Tinggi" }, "geometry": { "type": "Polygon", "coordinates": [ [ [ 110.356605531714109, -7.791324439001211 ], [ 110.352681862131249, -7.789057192323493 ], [ 110.348751251082462, -7.791312441036854 ], [ 110.348744261240114, -7.795834968554718 ], [ 110.352667966731914, -7.798102254428042 ], [ 110.356598626157364, -7.795846973566657 ], [ 110.356605531714109, -7.791324439001211 ] ] ] } },
{ "type": "Feature", "properties": { "hex_id": 47, "hex_r_m": 500.0, "luas_km2": 0.6495, "poi_total": 111, "poi_kuliner": 35, "poi_peribadatan": 26, "poi_kesehatan": 20, "poi_pendidikan": 18, "poi_perkantoran": 7, "poi_pariwisata": 2, "poi_perdagangan": 3, "poi_transportasi": 0, "penduduk": 13281, "densitas_poi": 170.9, "densitas_penduduk": 20447.4, "skor_poi": 0.854, "skor_penduduk": 0.991, "skor_aktivitas": 0.922, "kelas_aktivitas": "Sangat Tinggi" }, "geometry": { "type": "Polygon", "coordinates": [ [ [ 110.364459824737523, -7.791336291412066 ], [ 110.36053610685363, -7.789069114008879 ], [ 110.356605531714109, -7.791324439001211 ], [ 110.356598626157364, -7.795846973566657 ], [ 110.360522380026168, -7.798114190123088 ], [ 110.364453003467034, -7.79585883293959 ], [ 110.364459824737523, -7.791336291412066 ] ] ] } },
{ "type": "Feature", "properties": { "hex_id": 48, "hex_r_m": 500.0, "luas_km2": 0.6495, "poi_total": 130, "poi_kuliner": 41, "poi_peribadatan": 32, "poi_kesehatan": 21, "poi_pendidikan": 15, "poi_perkantoran": 12, "poi_pariwisata": 6, "poi_perdagangan": 3, "poi_transportasi": 0, "penduduk": 12479, "densitas_poi": 200.15, "densitas_penduduk": 19212.7, "skor_poi": 1.0, "skor_penduduk": 0.931, "skor_aktivitas": 0.966, "kelas_aktivitas": "Sangat Tinggi" }, "geometry": { "type": "Polygon", "coordinates": [ [ [ 110.372314130001485, -7.791347998268311 ], [ 110.368390363891834, -7.789080890182953 ], [ 110.364459824737523, -7.791336291412066 ], [ 110.364453003467034, -7.79585883293959 ], [ 110.368376805637538, -7.798125980135827 ], [ 110.372307393017905, -7.795870546672419 ], [ 110.372314130001485, -7.791347998268311 ] ] ] } },
{ "type": "Feature", "properties": { "hex_id": 49, "hex_r_m": 500.0, "luas_km2": 0.6495, "poi_total": 79, "poi_kuliner": 27, "poi_peribadatan": 16, "poi_kesehatan": 16, "poi_pendidikan": 10, "poi_perkantoran": 5, "poi_pariwisata": 1, "poi_perdagangan": 1, "poi_transportasi": 3, "penduduk": 11247, "densitas_poi": 121.63, "densitas_penduduk": 17315.9, "skor_poi": 0.608, "skor_penduduk": 0.839, "skor_aktivitas": 0.724, "kelas_aktivitas": "Sangat Tinggi" }, "geometry": { "type": "Polygon", "coordinates": [ [ [ 110.380168447354734, -7.791359559568851 ], [ 110.376244633094629, -7.789092520844617 ], [ 110.372314130001485, -7.791347998268311 ], [ 110.372307393017905, -7.795870546672419 ], [ 110.376231243414779, -7.79813762446516 ], [ 110.38016179465869, -7.795882114764047 ], [ 110.380168447354734, -7.791359559568851 ] ] ] } },
{ "type": "Feature", "properties": { "hex_id": 50, "hex_r_m": 500.0, "luas_km2": 0.6495, "poi_total": 60, "poi_kuliner": 11, "poi_peribadatan": 13, "poi_kesehatan": 17, "poi_pendidikan": 9, "poi_perkantoran": 7, "poi_pariwisata": 2, "poi_perdagangan": 1, "poi_transportasi": 0, "penduduk": 6413, "densitas_poi": 92.38, "densitas_penduduk": 9873.5, "skor_poi": 0.462, "skor_penduduk": 0.476, "skor_aktivitas": 0.469, "kelas_aktivitas": "Sedang" }, "geometry": { "type": "Polygon", "coordinates": [ [ [ 110.388022776646011, -7.791370975312614 ], [ 110.384098914310783, -7.789104005992788 ], [ 110.380168447354734, -7.791359559568851 ], [ 110.38016179465869, -7.795882114764047 ], [ 110.384085693206643, -7.798149123110002 ], [ 110.388016208238142, -7.795893537213392 ], [ 110.388022776646011, -7.791370975312614 ] ] ] } },
{ "type": "Feature", "properties": { "hex_id": 51, "hex_r_m": 500.0, "luas_km2": 0.6495, "poi_total": 48, "poi_kuliner": 12, "poi_peribadatan": 6, "poi_kesehatan": 13, "poi_pendidikan": 10, "poi_perkantoran": 6, "poi_pariwisata": 1, "poi_perdagangan": 0, "poi_transportasi": 0, "penduduk": 6161, "densitas_poi": 73.9, "densitas_penduduk": 9485.5, "skor_poi": 0.369, "skor_penduduk": 0.457, "skor_aktivitas": 0.413, "kelas_aktivitas": "Sedang" }, "geometry": { "type": "Polygon", "coordinates": [ [ [ 110.395877117724083, -7.791382245498524 ], [ 110.391953207389022, -7.78911534562639 ], [ 110.388022776646011, -7.791370975312614 ], [ 110.388016208238142, -7.795893537213392 ], [ 110.391940154861857, -7.798160476069275 ], [ 110.395870633605, -7.795904814019391 ], [ 110.395877117724083, -7.791382245498524 ] ] ] } },
{ "type": "Feature", "properties": { "hex_id": 52, "hex_r_m": 500.0, "luas_km2": 0.6495, "poi_total": 0, "poi_kuliner": 0, "poi_peribadatan": 0, "poi_kesehatan": 0, "poi_pendidikan": 0, "poi_perkantoran": 0, "poi_pariwisata": 0, "poi_perdagangan": 0, "poi_transportasi": 0, "penduduk": 120, "densitas_poi": 0.0, "densitas_penduduk": 184.8, "skor_poi": 0.0, "skor_penduduk": 0.004, "skor_aktivitas": 0.002, "kelas_aktivitas": "Sangat Rendah" }, "geometry": { "type": "Polygon", "coordinates": [ [ [ 110.403731470437691, -7.791393370125538 ], [ 110.399807512178128, -7.789126539744368 ], [ 110.395877117724083, -7.791382245498524 ], [ 110.395870633605, -7.795904814019391 ], [ 110.399794628229159, -7.798171683341921 ], [ 110.403725070608004, -7.795915945180986 ], [ 110.403731470437691, -7.791393370125538 ] ] ] } },
{ "type": "Feature", "properties": { "hex_id": 53, "hex_r_m": 500.0, "luas_km2": 0.6495, "poi_total": 12, "poi_kuliner": 3, "poi_peribadatan": 1, "poi_kesehatan": 1, "poi_pendidikan": 3, "poi_perkantoran": 3, "poi_pariwisata": 1, "poi_perdagangan": 0, "poi_transportasi": 0, "penduduk": 2412, "densitas_poi": 18.48, "densitas_penduduk": 3713.5, "skor_poi": 0.092, "skor_penduduk": 0.176, "skor_aktivitas": 0.134, "kelas_aktivitas": "Rendah" }, "geometry": { "type": "Polygon", "coordinates": [ [ [ 110.352688803597246, -7.784534659817561 ], [ 110.348765218224372, -7.782267383093855 ], [ 110.344834655551622, -7.78452259971209 ], [ 110.344827629875951, -7.789045125127916 ], [ 110.348751251082462, -7.791312441036854 ], [ 110.352681862131249, -7.789057192323493 ], [ 110.352688803597246, -7.784534659817561 ] ] ] } },
{ "type": "Feature", "properties": { "hex_id": 54, "hex_r_m": 500.0, "luas_km2": 0.6495, "poi_total": 70, "poi_kuliner": 13, "poi_peribadatan": 17, "poi_kesehatan": 11, "poi_pendidikan": 14, "poi_perkantoran": 11, "poi_pariwisata": 4, "poi_perdagangan": 0, "poi_transportasi": 0, "penduduk": 9679, "densitas_poi": 107.77, "densitas_penduduk": 14901.8, "skor_poi": 0.538, "skor_penduduk": 0.721, "skor_aktivitas": 0.63, "kelas_aktivitas": "Tinggi" }, "geometry": { "type": "Polygon", "coordinates": [ [ [ 110.360542964109314, -7.78454657449833 ], [ 110.356619330436047, -7.782279366963487 ], [ 110.352688803597246, -7.784534659817561 ], [ 110.352681862131249, -7.789057192323493 ], [ 110.356605531714109, -7.791324439001211 ], [ 110.36053610685363, -7.789069114008879 ], [ 110.360542964109314, -7.78454657449833 ] ] ] } },
{ "type": "Feature", "properties": { "hex_id": 55, "hex_r_m": 500.0, "luas_km2": 0.6495, "poi_total": 95, "poi_kuliner": 38, "poi_peribadatan": 16, "poi_kesehatan": 19, "poi_pendidikan": 10, "poi_perkantoran": 6, "poi_pariwisata": 3, "poi_perdagangan": 1, "poi_transportasi": 2, "penduduk": 10760, "densitas_poi": 146.26, "densitas_penduduk": 16566.1, "skor_poi": 0.731, "skor_penduduk": 0.802, "skor_aktivitas": 0.766, "kelas_aktivitas": "Sangat Tinggi" }, "geometry": { "type": "Polygon", "coordinates": [ [ [ 110.368397136936565, -7.784558343753285 ], [ 110.364473455038194, -7.782291205450609 ], [ 110.360542964109314, -7.78454657449833 ], [ 110.36053610685363, -7.789069114008879 ], [ 110.364459824737523, -7.791336291412066 ], [ 110.368390363891834, -7.789080890182953 ], [ 110.368397136936565, -7.784558343753285 ] ] ] } },
{ "type": "Feature", "properties": { "hex_id": 56, "hex_r_m": 500.0, "luas_km2": 0.6495, "poi_total": 94, "poi_kuliner": 32, "poi_peribadatan": 15, "poi_kesehatan": 21, "poi_pendidikan": 19, "poi_perkantoran": 3, "poi_pariwisata": 4, "poi_perdagangan": 0, "poi_transportasi": 0, "penduduk": 7560, "densitas_poi": 144.72, "densitas_penduduk": 11639.4, "skor_poi": 0.723, "skor_penduduk": 0.562, "skor_aktivitas": 0.643, "kelas_aktivitas": "Sangat Tinggi" }, "geometry": { "type": "Polygon", "coordinates": [ [ [ 110.376251321927768, -7.784569967581326 ], [ 110.372327591879582, -7.782302898554109 ], [ 110.368397136936565, -7.784558343753285 ], [ 110.368390363891834, -7.789080890182953 ], [ 110.372314130001485, -7.791347998268311 ], [ 110.376244633094629, -7.789092520844617 ], [ 110.376251321927768, -7.784569967581326 ] ] ] } },
{ "type": "Feature", "properties": { "hex_id": 57, "hex_r_m": 500.0, "luas_km2": 0.6495, "poi_total": 48, "poi_kuliner": 19, "poi_peribadatan": 12, "poi_kesehatan": 10, "poi_pendidikan": 5, "poi_perkantoran": 2, "poi_pariwisata": 0, "poi_perdagangan": 0, "poi_transportasi": 0, "penduduk": 7201, "densitas_poi": 73.9, "densitas_penduduk": 11086.7, "skor_poi": 0.369, "skor_penduduk": 0.535, "skor_aktivitas": 0.452, "kelas_aktivitas": "Sedang" }, "geometry": { "type": "Polygon", "coordinates": [ [ [ 110.38410551893169, -7.784581445981367 ], [ 110.380181740808993, -7.782314446272902 ], [ 110.376251321927768, -7.784569967581326 ], [ 110.376244633094629, -7.789092520844617 ], [ 110.380168447354734, -7.791359559568851 ], [ 110.384098914310783, -7.789104005992788 ], [ 110.38410551893169, -7.784581445981367 ] ] ] } },
{ "type": "Feature", "properties": { "hex_id": 58, "hex_r_m": 500.0, "luas_km2": 0.6495, "poi_total": 54, "poi_kuliner": 14, "poi_peribadatan": 12, "poi_kesehatan": 8, "poi_pendidikan": 7, "poi_perkantoran": 6, "poi_pariwisata": 6, "poi_perdagangan": 1, "poi_transportasi": 0, "penduduk": 6925, "densitas_poi": 83.14, "densitas_penduduk": 10661.7, "skor_poi": 0.415, "skor_penduduk": 0.515, "skor_aktivitas": 0.465, "kelas_aktivitas": "Sedang" }, "geometry": { "type": "Polygon", "coordinates": [ [ [ 110.391959727797087, -7.784592778952341 ], [ 110.388035901675181, -7.782325848605904 ], [ 110.38410551893169, -7.784581445981367 ], [ 110.384098914310783, -7.789104005992788 ], [ 110.388022776646011, -7.791370975312614 ], [ 110.391953207389022, -7.78911534562639 ], [ 110.391959727797087, -7.784592778952341 ] ] ] } },
{ "type": "Feature", "properties": { "hex_id": 59, "hex_r_m": 500.0, "luas_km2": 0.6495, "poi_total": 13, "poi_kuliner": 4, "poi_peribadatan": 3, "poi_kesehatan": 3, "poi_pendidikan": 3, "poi_perkantoran": 0, "poi_pariwisata": 0, "poi_perdagangan": 0, "poi_transportasi": 0, "penduduk": 1977, "densitas_poi": 20.01, "densitas_penduduk": 3043.8, "skor_poi": 0.1, "skor_penduduk": 0.144, "skor_aktivitas": 0.122, "kelas_aktivitas": "Sangat Rendah" }, "geometry": { "type": "Polygon", "coordinates": [ [ [ 110.399813948372724, -7.784603966493186 ], [ 110.395890074326942, -7.782337105552054 ], [ 110.391959727797087, -7.784592778952341 ], [ 110.391953207389022, -7.78911534562639 ], [ 110.395877117724083, -7.791382245498524 ], [ 110.399807512178128, -7.789126539744368 ], [ 110.399813948372724, -7.784603966493186 ] ] ] } },
{ "type": "Feature", "properties": { "hex_id": 60, "hex_r_m": 500.0, "luas_km2": 0.6495, "poi_total": 44, "poi_kuliner": 9, "poi_peribadatan": 10, "poi_kesehatan": 9, "poi_pendidikan": 8, "poi_perkantoran": 7, "poi_pariwisata": 0, "poi_perdagangan": 1, "poi_transportasi": 0, "penduduk": 6174, "densitas_poi": 67.74, "densitas_penduduk": 9505.5, "skor_poi": 0.338, "skor_penduduk": 0.458, "skor_aktivitas": 0.398, "kelas_aktivitas": "Sedang" }, "geometry": { "type": "Polygon", "coordinates": [ [ [ 110.356626223601651, -7.777756829492311 ], [ 110.352702674063067, -7.77548959190111 ], [ 110.348772195524361, -7.777744852669821 ], [ 110.348765218224372, -7.782267383093855 ], [ 110.352688803597246, -7.784534659817561 ], [ 110.356619330436047, -7.782279366963487 ], [ 110.356626223601651, -7.777756829492311 ] ] ] } },
{ "type": "Feature", "properties": { "hex_id": 61, "hex_r_m": 500.0, "luas_km2": 0.6495, "poi_total": 88, "poi_kuliner": 28, "poi_peribadatan": 20, "poi_kesehatan": 23, "poi_pendidikan": 9, "poi_perkantoran": 6, "poi_pariwisata": 1, "poi_perdagangan": 1, "poi_transportasi": 0, "penduduk": 8929, "densitas_poi": 135.48, "densitas_penduduk": 13747.1, "skor_poi": 0.677, "skor_penduduk": 0.665, "skor_aktivitas": 0.671, "kelas_aktivitas": "Sangat Tinggi" }, "geometry": { "type": "Polygon", "coordinates": [ [ [ 110.364480264068774, -7.777768661017779 ], [ 110.360556666305754, -7.775501492573083 ], [ 110.356626223601651, -7.777756829492311 ], [ 110.356619330436047, -7.782279366963487 ], [ 110.360542964109314, -7.78454657449833 ], [ 110.364473455038194, -7.782291205450609 ], [ 110.364480264068774, -7.777768661017779 ] ] ] } },
{ "type": "Feature", "properties": { "hex_id": 62, "hex_r_m": 500.0, "luas_km2": 0.6495, "poi_total": 107, "poi_kuliner": 35, "poi_peribadatan": 22, "poi_kesehatan": 16, "poi_pendidikan": 23, "poi_perkantoran": 3, "poi_pariwisata": 4, "poi_perdagangan": 4, "poi_transportasi": 0, "penduduk": 9351, "densitas_poi": 164.74, "densitas_penduduk": 14396.8, "skor_poi": 0.823, "skor_penduduk": 0.696, "skor_aktivitas": 0.76, "kelas_aktivitas": "Sangat Tinggi" }, "geometry": { "type": "Polygon", "coordinates": [ [ [ 110.372334316774513, -7.77778034724512 ], [ 110.368410670862318, -7.775513247990225 ], [ 110.364480264068774, -7.777768661017779 ], [ 110.364473455038194, -7.782291205450609 ], [ 110.368397136936565, -7.784558343753285 ], [ 110.372327591879582, -7.782302898554109 ], [ 110.372334316774513, -7.77778034724512 ] ] ] } },
{ "type": "Feature", "properties": { "hex_id": 63, "hex_r_m": 500.0, "luas_km2": 0.6495, "poi_total": 100, "poi_kuliner": 33, "poi_peribadatan": 13, "poi_kesehatan": 33, "poi_pendidikan": 12, "poi_perkantoran": 5, "poi_pariwisata": 3, "poi_perdagangan": 1, "poi_transportasi": 0, "penduduk": 6378, "densitas_poi": 153.96, "densitas_penduduk": 9819.6, "skor_poi": 0.769, "skor_penduduk": 0.474, "skor_aktivitas": 0.621, "kelas_aktivitas": "Tinggi" }, "geometry": { "type": "Polygon", "coordinates": [ [ [ 110.380188381567635, -7.777791888173246 ], [ 110.376264687581553, -7.775524858151438 ], [ 110.372334316774513, -7.77778034724512 ], [ 110.372327591879582, -7.782302898554109 ], [ 110.376251321927768, -7.784569967581326 ], [ 110.380181740808993, -7.782314446272902 ], [ 110.380188381567635, -7.777791888173246 ] ] ] } },
{ "type": "Feature", "properties": { "hex_id": 64, "hex_r_m": 500.0, "luas_km2": 0.6495, "poi_total": 31, "poi_kuliner": 9, "poi_peribadatan": 7, "poi_kesehatan": 8, "poi_pendidikan": 3, "poi_perkantoran": 3, "poi_pariwisata": 1, "poi_perdagangan": 0, "poi_transportasi": 0, "penduduk": 3258, "densitas_poi": 47.73, "densitas_penduduk": 5016.0, "skor_poi": 0.238, "skor_penduduk": 0.24, "skor_aktivitas": 0.239, "kelas_aktivitas": "Rendah" }, "geometry": { "type": "Polygon", "coordinates": [ [ [ 110.388042458296894, -7.777803283801077 ], [ 110.384118716312244, -7.775536323055643 ], [ 110.380188381567635, -7.777791888173246 ], [ 110.380181740808993, -7.782314446272902 ], [ 110.38410551893169, -7.784581445981367 ], [ 110.388035901675181, -7.782325848605904 ], [ 110.388042458296894, -7.777803283801077 ] ] ] } },
{ "type": "Feature", "properties": { "hex_id": 65, "hex_r_m": 500.0, "luas_km2": 0.6495, "poi_total": 18, "poi_kuliner": 6, "poi_peribadatan": 1, "poi_kesehatan": 7, "poi_pendidikan": 4, "poi_perkantoran": 0, "poi_pariwisata": 0, "poi_perdagangan": 0, "poi_transportasi": 0, "penduduk": 1302, "densitas_poi": 27.71, "densitas_penduduk": 2004.6, "skor_poi": 0.138, "skor_penduduk": 0.093, "skor_aktivitas": 0.116, "kelas_aktivitas": "Sangat Rendah" }, "geometry": { "type": "Polygon", "coordinates": [ [ [ 110.395896546811102, -7.777814534127549 ], [ 110.391972756903158, -7.775547642701764 ], [ 110.388042458296894, -7.777803283801077 ], [ 110.388035901675181, -7.782325848605904 ], [ 110.391959727797087, -7.784592778952341 ], [ 110.395890074326942, -7.782337105552054 ], [ 110.395896546811102, -7.777814534127549 ] ] ] } },
{ "type": "Feature", "properties": { "hex_id": 66, "hex_r_m": 500.0, "luas_km2": 0.6495, "poi_total": 5, "poi_kuliner": 2, "poi_peribadatan": 2, "poi_kesehatan": 0, "poi_pendidikan": 1, "poi_perkantoran": 0, "poi_pariwisata": 0, "poi_perdagangan": 0, "poi_transportasi": 0, "penduduk": 1299, "densitas_poi": 7.7, "densitas_penduduk": 1999.9, "skor_poi": 0.038, "skor_penduduk": 0.093, "skor_aktivitas": 0.066, "kelas_aktivitas": "Sangat Rendah" }, "geometry": { "type": "Polygon", "coordinates": [ [ [ 110.352709603063332, -7.770967056491693 ], [ 110.348786137583502, -7.768699788919426 ], [ 110.344855707344195, -7.770955017655677 ], [ 110.344848694285517, -7.775477545975417 ], [ 110.348772195524361, -7.777744852669821 ], [ 110.352702674063067, -7.77548959190111 ], [ 110.352709603063332, -7.770967056491693 ] ] ] } },
{ "type": "Feature", "properties": { "hex_id": 67, "hex_r_m": 500.0, "luas_km2": 0.6495, "poi_total": 31, "poi_kuliner": 3, "poi_peribadatan": 11, "poi_kesehatan": 2, "poi_pendidikan": 8, "poi_perkantoran": 4, "poi_pariwisata": 3, "poi_perdagangan": 0, "poi_transportasi": 0, "penduduk": 7501, "densitas_poi": 47.73, "densitas_penduduk": 11548.5, "skor_poi": 0.238, "skor_penduduk": 0.558, "skor_aktivitas": 0.398, "kelas_aktivitas": "Sedang" }, "geometry": { "type": "Polygon", "coordinates": [ [ [ 110.360563511246909, -7.770978950159482 ], [ 110.356639997543283, -7.768711751648057 ], [ 110.352709603063332, -7.770967056491693 ], [ 110.352702674063067, -7.77548959190111 ], [ 110.356626223601651, -7.777756829492311 ], [ 110.360556666305754, -7.775501492573083 ], [ 110.360563511246909, -7.770978950159482 ] ] ] } },
{ "type": "Feature", "properties": { "hex_id": 68, "hex_r_m": 500.0, "luas_km2": 0.6495, "poi_total": 67, "poi_kuliner": 17, "poi_peribadatan": 13, "poi_kesehatan": 14, "poi_pendidikan": 12, "poi_perkantoran": 9, "poi_pariwisata": 1, "poi_perdagangan": 1, "poi_transportasi": 0, "penduduk": 7998, "densitas_poi": 103.15, "densitas_penduduk": 12313.7, "skor_poi": 0.515, "skor_penduduk": 0.595, "skor_aktivitas": 0.555, "kelas_aktivitas": "Tinggi" }, "geometry": { "type": "Polygon", "coordinates": [ [ [ 110.368417431743737, -7.77099069865793 ], [ 110.364493869891589, -7.768723569250648 ], [ 110.360563511246909, -7.770978950159482 ], [ 110.360556666305754, -7.775501492573083 ], [ 110.364480264068774, -7.777768661017779 ], [ 110.368410670862318, -7.775513247990225 ], [ 110.368417431743737, -7.77099069865793 ] ] ] } },
{ "type": "Feature", "properties": { "hex_id": 69, "hex_r_m": 500.0, "luas_km2": 0.6495, "poi_total": 18, "poi_kuliner": 4, "poi_peribadatan": 4, "poi_kesehatan": 3, "poi_pendidikan": 3, "poi_perkantoran": 3, "poi_pariwisata": 0, "poi_perdagangan": 1, "poi_transportasi": 0, "penduduk": 2014, "densitas_poi": 27.71, "densitas_penduduk": 3100.8, "skor_poi": 0.138, "skor_penduduk": 0.146, "skor_aktivitas": 0.142, "kelas_aktivitas": "Rendah" }, "geometry": { "type": "Polygon", "coordinates": [ [ [ 110.376271364402598, -7.771002301985942 ], [ 110.372347754477204, -7.768735241726093 ], [ 110.368417431743737, -7.77099069865793 ], [ 110.368410670862318, -7.775513247990225 ], [ 110.372334316774513, -7.77778034724512 ], [ 110.376264687581553, -7.775524858151438 ], [ 110.376271364402598, -7.771002301985942 ] ] ] } },
{ "type": "Feature", "properties": { "hex_id": 70, "hex_r_m": 500.0, "luas_km2": 0.6495, "poi_total": 3, "poi_kuliner": 1, "poi_peribadatan": 0, "poi_kesehatan": 0, "poi_pendidikan": 2, "poi_perkantoran": 0, "poi_pariwisata": 0, "poi_perdagangan": 0, "poi_transportasi": 0, "penduduk": 1153, "densitas_poi": 4.62, "densitas_penduduk": 1775.2, "skor_poi": 0.023, "skor_penduduk": 0.082, "skor_aktivitas": 0.053, "kelas_aktivitas": "Sangat Rendah" }, "geometry": { "type": "Polygon", "coordinates": [ [ [ 110.356646878319722, -7.764189211276083 ], [ 110.352723448599562, -7.761921982773219 ], [ 110.348793102343095, -7.764177255594159 ], [ 110.348786137583488, -7.768699788919426 ], [ 110.352709603063332, -7.770967056491693 ], [ 110.356639997543283, -7.768711751648057 ], [ 110.356646878319722, -7.764189211276083 ] ] ] } },
{ "type": "Feature", "properties": { "hex_id": 71, "hex_r_m": 500.0, "luas_km2": 0.6495, "poi_total": 3, "poi_kuliner": 0, "poi_peribadatan": 1, "poi_kesehatan": 1, "poi_pendidikan": 1, "poi_perkantoran": 0, "poi_pariwisata": 0, "poi_perdagangan": 0, "poi_transportasi": 0, "penduduk": 421, "densitas_poi": 4.62, "densitas_penduduk": 648.2, "skor_poi": 0.023, "skor_penduduk": 0.027, "skor_aktivitas": 0.025, "kelas_aktivitas": "Sangat Rendah" }, "geometry": { "type": "Polygon", "coordinates": [ [ [ 110.364500666684208, -7.764201021917448 ], [ 110.36057718881618, -7.761933862433073 ], [ 110.356646878319722, -7.764189211276083 ], [ 110.356639997543283, -7.768711751648057 ], [ 110.360563511246909, -7.770978950159482 ], [ 110.364493869891589, -7.768723569250648 ], [ 110.364500666684208, -7.764201021917448 ] ] ] } },
{ "type": "Feature", "properties": { "hex_id": 72, "hex_r_m": 500.0, "luas_km2": 0.6495, "poi_total": 2, "poi_kuliner": 1, "poi_peribadatan": 0, "poi_kesehatan": 1, "poi_pendidikan": 0, "poi_perkantoran": 0, "poi_pariwisata": 0, "poi_perdagangan": 0, "poi_transportasi": 0, "penduduk": 63, "densitas_poi": 3.08, "densitas_penduduk": 97.0, "skor_poi": 0.015, "skor_penduduk": 0.0, "skor_aktivitas": 0.008, "kelas_aktivitas": "Sangat Rendah" }, "geometry": { "type": "Polygon", "coordinates": [ [ [ 110.372354467285405, -7.764212687517157 ], [ 110.368430941344769, -7.761945597094558 ], [ 110.364500666684208, -7.764201021917448 ], [ 110.364493869891589, -7.768723569250648 ], [ 110.368417431743737, -7.77099069865793 ], [ 110.372347754477204, -7.768735241726093 ], [ 110.372354467285405, -7.764212687517157 ] ] ] } }
]
}
